*******************************************************************************
 Revised: July 31, 2013                  Earth                              399
 
 GEOPHYSICAL PROPERTIES (revised Aug 15, 2018):
  Vol. Mean Radius (km)    = 6371.01+-0.02   Mass x10^24 (kg)= 5.97219+-0.0006
  Equ. radius, km          = 6378.137        Mass layers:
  Polar axis, km           = 6356.752          Atmos         = 5.1   x 10^18 kg
  Flattening               = 1/298.257223563   oceans        = 1.4   x 10^21 kg
  Density, g/cm^3          = 5.51              crust         = 2.6   x 10^22 kg
  J2 (IERS 2010)           = 0.00108262545     mantle        = 4.043 x 10^24 kg
  g_p, m/s^2  (polar)      = 9.8321863685      outer core    = 1.835 x 10^24 kg
  g_e, m/s^2  (equatorial) = 9.7803267715      inner core    = 9.675 x 10^22 kg
  g_o, m/s^2               = 9.82022         Fluid core rad  = 3480 km
  GM, km^3/s^2             = 398600.435436   Inner core rad  = 1215 km
  GM 1-sigma, km^3/s^2     =      0.0014     Escape velocity = 11.186 km/s
  Rot. Rate (rad/s)        = 0.00007292115   Surface area:
  Mean sidereal day, hr    = 23.9344695944     land          = 1.48 x 10^8 km
  Mean solar day 2000.0, s = 86400.002         sea           = 3.62 x 10^8 km
  Mean solar day 1820.0, s = 86400.0         Love no., k2    = 0.299
  Moment of inertia        = 0.3308          Atm. pressure   = 1.0 bar
  Mean temperature, K      = 270             Volume, km^3    = 1.08321 x 10^12
  Mean effect. IR temp, K  = 255             Magnetic moment = 0.61 gauss Rp^3
  Geometric albedo         = 0.367           Vis. mag. V(1,0)= -3.86
  Solar Constant (W/m^2)   = 1367.6 (mean), 1414 (perihelion), 1322 (aphelion)
 HELIOCENTRIC ORBIT CHARACTERISTICS:
  Obliquity to orbit, deg  = 23.4392911  Sidereal orb period  = 1.0000174 y
  Orbital speed, km/s      = 29.79       Sidereal orb period  = 365.25636 d
  Mean daily motion, deg/d = 0.9856474   Hill's sphere radius = 234.9       
*******************************************************************************
 
 
*******************************************************************************
Ephemeris / WWW_USER Fri Jun 19 18:04:59 2020 Pasadena, USA      / Horizons
*******************************************************************************
Target body name: Earth (399)                     {source: DE431mx}
Center body name: Solar System Barycenter (0)     {source: DE431mx}
Center-site name: BODY CENTER
*******************************************************************************
Start time      : A.D. 1969-Jun-28 00:00:00.0000 TDB
Stop  time      : A.D. 2071-May-04 00:00:00.0000 TDB
Step-size       : 7200 minutes
*******************************************************************************
Center geodetic : 0.00000000,0.00000000,0.0000000 {E-lon(deg),Lat(deg),Alt(km)}
Center cylindric: 0.00000000,0.00000000,0.0000000 {E-lon(deg),Dxy(km),Dz(km)}
Center radii    : (undefined)                                                  
Output units    : AU-D
Output type     : GEOMETRIC cartesian states
Output format   : 2 (position and velocity)
Reference frame : Ecliptic of J2000.0
*******************************************************************************
            JDTDB,            Calendar Date (TDB),        delta-T,                      X,                      Y,                      Z,                     VX,                     VY,                     VZ,
******************************************************************************************************************************************************************************************************************
$$SOE
2443880.500000000, A.D. 1979-Jan-07 00:00:00.0000,      50.184115, -2.712408614967119E-01,  9.403483119111529E-01, -1.247100018538831E-04, -1.677627625248854E-02, -4.916720360675235E-03, -5.138344808075041E-08,
2443885.500000000, A.D. 1979-Jan-12 00:00:00.0000,      50.184256, -3.539248053694865E-01,  9.121449595936372E-01, -1.266763129788622E-04, -1.627717507865455E-02, -6.356748682639340E-03, -7.546688182607005E-07,
2443890.500000000, A.D. 1979-Jan-17 00:00:00.0000,      50.184396, -4.338146625489344E-01,  8.768627710795766E-01, -1.318762828797438E-04, -1.565913734135822E-02, -7.747531706270428E-03, -1.241140330708553E-06,
2443895.500000000, A.D. 1979-Jan-22 00:00:00.0000,      50.184533, -5.103198920561699E-01,  8.347612642797774E-01, -1.379941597818204E-04, -1.492325046559803E-02, -9.083221262578123E-03, -1.086228950813860E-06,
2443900.500000000, A.D. 1979-Jan-27 00:00:00.0000,      50.184667, -5.828479842152878E-01,  7.861388774368355E-01, -1.417685081467489E-04, -1.406784328502876E-02, -1.035351529857782E-02, -3.886677832291077E-07,
2443905.500000000, A.D. 1979-Feb-01 00:00:00.0000,      50.184797, -6.508017382782049E-01,  7.313688079972775E-01, -1.426681243958914E-04, -1.309539651290701E-02, -1.153831708488911E-02, -1.389607303826415E-07,
2443910.500000000, A.D. 1979-Feb-06 00:00:00.0000,      50.184920, -7.136389128918602E-01,  6.709252597184461E-01, -1.446275945155469E-04, -1.202476534200464E-02, -1.262201409984956E-02, -7.241354928579139E-07,
2443915.500000000, A.D. 1979-Feb-11 00:00:00.0000,      50.185034, -7.709120908069902E-01,  6.053188297310786E-01, -1.499959583470265E-04, -1.087152113848297E-02, -1.360355291865706E-02, -1.373787528419202E-06,
2443920.500000000, A.D. 1979-Feb-16 00:00:00.0000,      50.185140, -8.222294739607778E-01,  5.350606479093266E-01, -1.574681759938847E-04, -9.643358694415649E-03, -1.448245353878073E-02, -1.498791067740867E-06,
2443925.500000000, A.D. 1979-Feb-21 00:00:00.0000,      50.185238, -8.672273566161903E-01,  4.606707690341905E-01, -1.638237221205153E-04, -8.344139141404038E-03, -1.525527017576142E-02, -9.506329638086624E-07,
2443930.500000000, A.D. 1979-Feb-26 00:00:00.0000,      50.185329, -9.055568160088242E-01,  3.827008386373958E-01, -1.667552992425865E-04, -6.976862274374582E-03, -1.591195453098596E-02, -3.032742896599723E-07,
2443935.500000000, A.D. 1979-Mar-03 00:00:00.0000,      50.185409, -9.369055181584176E-01,  3.017723524352777E-01, -1.684530121400437E-04, -5.555793300288663E-03, -1.643674924870945E-02, -5.364402444897003E-07,
2443940.500000000, A.D. 1979-Mar-08 00:00:00.0000,      50.185478, -9.610642669522704E-01,  2.185554214803503E-01, -1.729101557123227E-04, -4.103889791011233E-03, -1.682844391139216E-02, -1.244591670461840E-06,
2443945.500000000, A.D. 1979-Mar-13 00:00:00.0000,      50.185534, -9.779141980849405E-01,  1.336988798099348E-01, -1.803383086022070E-04, -2.633723246790286E-03, -1.709347084579539E-02, -1.630226696638191E-06,
2443950.500000000, A.D. 1979-Mar-18 00:00:00.0000,      50.185578, -9.873825060656183E-01,  4.782496962702493E-02, -1.880409061270026E-04, -1.152022981970677E-03, -1.723579637385728E-02, -1.332272535246634E-06,
2443955.500000000, A.D. 1979-Mar-23 00:00:00.0000,      50.185612, -9.894210735613328E-01, -3.845374972320768E-02, -1.928552294779783E-04,  3.375931858986417E-04, -1.725461201946295E-02, -5.798318643480601E-07,
2443960.500000000, A.D. 1979-Mar-28 00:00:00.0000,      50.185635, -9.840053647896105E-01, -1.245010069438409E-01, -1.946580202094746E-04,  1.827294989064558E-03, -1.714139034983368E-02, -3.040727054040964E-07,
2443965.500000000, A.D. 1979-Apr-02 00:00:00.0000,      50.185646, -9.711835217596975E-01, -2.096390130966894E-01, -1.974125980269828E-04,  3.296013229917368E-03, -1.689174498314596E-02, -8.772848004617523E-07,
2443970.500000000, A.D. 1979-Apr-07 00:00:00.0000,      50.185643, -9.511101548747104E-01, -2.932092498501209E-01, -2.033920486881144E-04,  4.726136606145021E-03, -1.651642715141169E-02, -1.450288286071210E-06,
2443975.500000000, A.D. 1979-Apr-12 00:00:00.0000,      50.185627, -9.239988778681165E-01, -3.746120230851498E-01, -2.109360846016331E-04,  6.110350439210032E-03, -1.602627535073554E-02, -1.447550537219279E-06,
2443980.500000000, A.D. 1979-Apr-17 00:00:00.0000,      50.185599, -8.900880798703777E-01, -4.532928493213657E-01, -2.167362987517413E-04,  7.445787644645304E-03, -1.542833495029537E-02, -7.960773831475614E-07,
2443985.500000000, A.D. 1979-Apr-22 00:00:00.0000,      50.185561, -8.496255716872301E-01, -5.287150700940372E-01, -2.189234706544400E-04,  8.730067808622082E-03, -1.472201071188816E-02, -1.711996330877843E-07,
2443990.500000000, A.D. 1979-Apr-27 00:00:00.0000,      50.185513, -8.028934982136982E-01, -6.003245988401787E-01, -2.199309344371112E-04,  9.950352227397815E-03, -1.390323171414295E-02, -3.803640196606768E-07,
2443995.500000000, A.D. 1979-May-02 00:00:00.0000,      50.185453, -7.502613375463286E-01, -6.675737390390606E-01, -2.234644215289133E-04,  1.108761684313044E-02, -1.298052403805116E-02, -1.021897228343335E-06,
2444000.500000000, A.D. 1979-May-07 00:00:00.0000,      50.185382, -6.921698811731328E-01, -7.299838582629928E-01, -2.294817216996282E-04,  1.213351358268723E-02, -1.197004464246345E-02, -1.283567468351711E-06,
2444005.500000000, A.D. 1979-May-12 00:00:00.0000,      50.185300, -6.290809810108605E-01, -7.871489324539910E-01, -2.351433934031437E-04,  1.308670812630863E-02, -1.088427748708427E-02, -8.680291649280252E-07,
2444010.500000000, A.D. 1979-May-17 00:00:00.0000,      50.185208, -5.614533216644974E-01, -8.387130147984788E-01, -2.375135991499701E-04,  1.394940538173488E-02, -9.729915891379755E-03, -9.639616090755557E-08,
2444015.500000000, A.D. 1979-May-22 00:00:00.0000,      50.185110, -4.897427524861552E-01, -8.843304363907245E-01, -2.371298665511042E-04,  1.471809213109245E-02, -8.505223186626920E-03,  9.649934786292446E-08,
2444020.500000000, A.D. 1979-May-27 00:00:00.0000,      50.185004, -4.144539970889262E-01, -9.236542660590538E-01, -2.378377332825824E-04,  1.537804476340004E-02, -7.214477457541547E-03, -4.430764075418450E-07,
